1 23433U 94083C   18241.91562038 +.00000176 +00000-0 +65810-4 0  9997
2 23433 074.0096 168.1469 0010198 079.7527 349.1348 14.38795479239939
1 23434U 94083D   18241.89591703 +.00000141 +00000-0 +60361-4 0  9994
2 23434 074.0311 304.6130 0010466 099.4849 016.4277 14.33653978235872
1 23457U 94089B   18241.85671417 +.00003695 +00000-0 +39933-3 0  9999
2 23457 098.9122 013.8845 0002222 118.6172 241.5266 14.89058593246535
1 23485U 94085H   18241.85662260 -.00002086 +00000-0 -57089-1 0  9997
2 23485 064.6544 146.2744 0134343 286.2901 072.3282 11.29561268975700
1 23486U 94085J   18241.34117814 +.00000107 +00000-0 +43451-2 0  9991
2 23486 064.9153 014.1371 0162832 070.4991 317.6114 11.25114723282543
1 23487U 94085K   18241.38960277 -.00000056 +00000-0 -37896-3 0  9997
2 23487 064.9359 212.8477 0165726 021.6346 134.0350 11.30362050976988
1 23492U 94085Q   18241.29029448 -.00000031  00000-0  31248-3 0  9996
2 23492  64.9482 197.7773 0173356   6.6070 151.7698 11.31110398977963
1 23493U 94085R   18241.31456358  .00000066  00000-0  29544-2 0  9996
2 23493  64.9396 181.9218 0139766  18.3581 139.7694 11.31660124978321
1 23494U 94085S   18242.43951874  .00002137  00000-0  38803-1 0  9992
2 23494  64.9690 245.6854 0366191 271.9014 242.6078 11.56199397986915
1 23495U 94085T   18242.43936014 -.00000049  00000-0 -17499-3 0  9994
2 23495  65.0202 235.7686 0190321 284.6743 233.7492 11.31027899978035
1 23535U 95015C   18241.88982571 +.00000847 +00000-0 +22169-3 0  9994
2 23535 098.6736 044.0713 0003478 325.9098 034.1873 14.51961905224843
1 23564U 94085V   18241.62515187 -.00000083  00000-0 -10336-2 0  9995
2 23564  64.9941 113.1444 0199559 307.7219  82.0407 11.34798449965809
1 23706U 95058C   18241.50302628 -.00000010  00000-0  29853-4 0  9990
2 23706  71.0002 264.2708 0198045 129.4336 345.9503 13.73681958144283
1 23707U 95058D   18241.61738584 +.00000015 +00000-0 +54683-4 0  9990
2 23707 070.9975 306.6298 0206281 190.6911 322.5066 13.71851166142637
1 23708U 95058E   18241.95485420 -.00000013 +00000-0 +26903-4 0  9999
2 23708 071.0492 237.6109 0186511 016.2099 009.0910 13.76000858146246
1 23709U 95058F   18241.57560076 -.00000025 +00000-0 +15400-4 0  9992
2 23709 071.0388 285.3576 0196609 097.2355 019.5321 13.74075067144356
1 23975U 94029V   18241.89579436  .00002949  00000-0  27938-3 0  9993
2 23975  82.4417  94.4651 0186000  89.1429 273.1090 14.80949279150888
1 23986U 94029AG  18241.95297045 +.00000505 +00000-0 +39315-4 0  9994
2 23986 082.0465 038.2983 0072262 063.8492 059.9958 14.96982125201969
1 24007U 94029BC  18241.66145378 +.00000270 +00000-0 +24739-4 0  9991
2 24007 081.9258 308.9008 0080146 258.3786 218.0104 14.88890038199952
1 24051U 94029CY  18242.19056094  .00000584  00000-0  15998-3 0  9999
2 24051  81.2901 274.1509 0460586 299.9066 125.0030 13.98469513116326
1 24091U 94029EN  18241.91522941 +.00000313 +00000-0 +28514-4 0  9990
2 24091 081.9998 036.6020 0084831 248.6213 234.3339 14.89248771205060
1 24097U 94029EU  18242.12136643  .00001096  00000-0  67617-4 0  9996
2 24097  81.9957 103.6400 0071818 108.3173 252.5883 15.06690666209554
1 24102U 94029EZ  18241.82596669  .00020637  00000-0  20659-3 0  9993
2 24102  81.8646 340.1834 0009012 180.9637 179.1605 15.65352997246163
1 24126U 94029FZ  18241.72750236  .00000301  00000-0  77848-4 0  9999
2 24126  81.8087 122.6460 0355533 284.7773 133.9312 14.16397226149054
1 24129U 94029GC  18241.97158387 +.00000265 +00000-0 +71404-4 0  9999
2 24129 081.4804 222.9759 0592560 262.1044 161.8824 13.75630058107092
1 24138U 94029GM  18241.89361167 +.00001977 +00000-0 +16757-3 0  9992
2 24138 081.5596 044.7942 0119773 104.1464 257.3097 14.91960280173130
1 24151U 94029HA  18241.95352613 +.00000148 +00000-0 +24012-4 0  9993
2 24151 082.0209 046.3002 0165466 325.8380 033.2254 14.56596020177707
1 24163U 94029HN  18241.91354550 +.00000497 +00000-0 +31819-4 0  9994
2 24163 082.0602 021.2750 0047106 324.7941 160.8382 15.05536111205385
1 24165U 94029HQ  18241.90050698 +.00000560 +00000-0 +10944-3 0  9997
2 24165 082.1840 305.4551 0273238 320.5915 037.5671 14.40434601145372
1 24197U 94029JY  18241.95263590 +.00000219 +00000-0 +25162-4 0  9994
2 24197 082.0899 240.1889 0089417 218.3732 168.4581 14.78355793274950
1 24213U 94029KL  18242.05518322  .00000563  00000-0  14964-3 0  9990
2 24213  81.4663 228.2832 0585312 313.4869  41.8999 13.77997659768483
1 24227U 94029LA  18241.84605140 +.00000187 +00000-0 +24706-4 0  9994
2 24227 082.0484 336.4018 0160562 352.8160 144.1657 14.66250402183522
1 24236U 94029LK  18242.39648608  .00000967  00000-0  17061-3 0  9992
2 24236  81.4438 225.3298 0459792  59.5833 304.9944 14.15198615128596
1 24239U 94029LN  18242.32796632  .00000417  00000-0  77859-4 0  9991
2 24239  81.5269 178.6100 0224764 337.1595 141.4353 14.48189079162061
1 24284U 95058G   18242.39016029  .00000182  00000-0  11143-3 0  9998
2 24284  70.8654 345.6286 0010369 106.6483 253.5780 14.18677264180042
1 24299U 96051C   18241.75153530 -.00000018 +00000-0 +21810-4 0  9998
2 24299 071.0367 268.3143 0188544 128.3458 233.4759 13.75204069103059
1 24300U 96051D   18241.59244538 +.00000029 +00000-0 +65950-4 0  9996
2 24300 071.0302 296.0718 0196425 187.5005 287.8478 13.74025226101929
1 24301U 96051E   18241.67616010 -.00000003  00000-0  38828-4 0  9991
2 24301  70.9966 324.7646 0210722 247.3050 186.1849 13.71849170100511
1 24302U 96051F   18241.74748407 -.00000034 +00000-0 +93977-5 0  9997
2 24302 070.9869 348.6937 0210664 302.0494 217.0855 13.70503968099269
1 24340U 94029NR  18241.91829749 +.00001551 +00000-0 +69166-3 0  9995
2 24340 081.5747 042.2562 0898358 189.3064 298.9917 13.00819835153967
1 24378U 94029QF  18241.89542833 +.00000166 +00000-0 +28013-4 0  9997
2 24378 082.0285 087.4769 0175409 071.1163 290.8960 14.53239711284506
1 24487U 94029UL  18241.81000069  .00024944  00000-0  28427-3 0  9998
2 24487  81.9345 159.7484 0017358  30.5727 329.6536 15.61898649210423
1 24529U 94029WD  18241.61765913 +.00000229 +00000-0 +23769-4 0  9994
2 24529 081.9762 097.3034 0126011 176.1362 237.4958 14.79573515830321
1 24581U 94029YH  18241.96506536 +.00000605 +00000-0 +24431-3 0  9998
2 24581 081.5514 205.9073 0804671 339.3741 075.0860 13.21862024058107
1 24594U 94029YW  18242.17233384  .00000700  00000-0  17677-3 0  9994
2 24594  81.4709 129.8024 0531304   6.7350 159.2613 13.89254301110597
1 24602U 94029ZE  18241.89837709 +.00000409 +00000-0 +13854-3 0  9992
2 24602 081.5288 060.6354 0787777 040.6627 325.0663 13.30283182065546
1 24679U 94085Y   18239.45559214 -.00000053  00000-0 -27997-3 0  9999
2 24679  64.9842 186.3469 0190880 323.8353 127.6015 11.32228386943827
1 24682U 94029AAQ 18241.70309201 +.00001928 +00000-0 +24146-3 0  9994
2 24682 082.1265 324.7026 0168059 131.2883 230.2937 14.72143513162081
1 24703U 94085Z   18240.51451500 -.00000048  00000-0 -16564-3 0  9997
2 24703  64.7347  25.9506 0218590 287.2845 137.2578 11.20685765913284
1 24752U 91006C   18241.84518014  .00000083  00000-0  64419-4 0  9992
2 24752  82.9183  21.4809 0025508 102.9190  26.5936 13.80503297158417
1 24756U 97012B   18242.05068906  .00010372  00000-0  50208-3 0  9995
2 24756  98.8253  65.3147 0004728  11.7634 105.6570 15.18811529132528
1 24778U 97012E   18241.79035983 +.00000579 +00000-0 +16850-3 0  9991
2 24778 098.7869 163.1026 0007279 063.3176 359.5829 14.48090387116695
1 24817U 94029ABU 18241.93757240 +.00000286 +00000-0 +82385-4 0  9995
2 24817 081.6905 107.4876 0415899 319.3619 097.8333 14.02515031120035
1 24866U 96051H   18242.12567807 -.00000110  00000-0 -35109-4 0  9996
2 24866  71.1233 127.3029 0063365 312.5291  47.0488 14.10075880130970
1 24973U 94029ACF 18241.74430895 +.00000361 +00000-0 +82594-4 0  9997
2 24973 082.0188 132.4793 0336822 359.3150 055.7314 14.23972085142534
1 24974U 92053C   18241.87472244 +.00000134 +00000-0 +60672-4 0  9992
2 24974 074.0554 178.8030 0023236 172.2756 242.9483 14.30784783113817
1 24978U 94029ACL 18240.53345160  .00001273  00000-0  14933-3 0  9992
2 24978  81.4471 328.1234 0332252 277.5140  78.8431 14.52077328138241
1 24980U 94029ACN 18241.18439011 +.00001652 +00000-0 +33120-3 0  9996
2 24980 081.5930 147.5396 0303939 043.6351 318.8437 14.35871877135379
1 24985U 94029ACT 18242.37933671  .00000166  00000-0  54298-4 0  9993
2 24985  81.5196 134.0933 0662313 251.5825 101.2251 13.55013807212226
1 24996U 94029ADD 18241.54262121  .00000521  00000-0  12267-3 0  9992
2 24996  82.1937  73.2919 0342985  47.2766 315.6748 14.22106104 89143
1 25027U 92053D   18241.95537215 +.00000158 +00000-0 +60934-4 0  9998
2 25027 074.0340 334.3714 0002883 055.2524 066.3405 14.38148934119229
1 25028U 93036D   18241.88144573  .00000174  00000-0  68545-4 0  9998
2 25028  74.0441 150.6626 0010530 332.3399  98.5919 14.36165666194869
1 25085U 91009CX  18241.89164904 -.00000067  00000-0 -46019-3 0  9994
2 25085  74.1101 195.2608 0179791 259.4885 130.3568 12.22975081 63048
1 25254U 93059H   18241.67593736 -.00000010  00000-0  17669-4 0  9991
2 25254  70.9894 324.3740 0015604  15.3843 100.8430 14.21337804 92886
1 25401U 98043H   18241.81052172 -.00000056 +00000-0 -10543-4 0  9998
2 25401 098.5412 184.9118 0163376 325.5207 085.3218 13.93702881023694
1 25402U 98043J   18241.88611601 -.00000267 +00000-0 -14681-3 0  9994
2 25402 099.3264 211.6813 0154567 174.3798 240.4419 13.95806812025191
1 25403U 98043K   18241.94869907 -.00000000 +00000-0 +29921-4 0  9994
2 25403 098.5210 049.2114 0214279 132.0243 353.0169 13.77717339012112
1 25409U 98045C   18241.91068278 -.00000021  00000-0  20290-4 0  9994
2 25409  71.0800 196.2064 0193972 353.4411  29.8693 13.74432261  7724
1 25410U 98045D   18241.97380032 -.00000040 +00000-0 +26330-5 0  9990
2 25410 070.9792 207.5819 0209630 197.9259 220.1563 13.70836920004598
1 25411U 98045E   18241.91476199 -.00000010 +00000-0 +30510-4 0  9996
2 25411 070.9857 218.4879 0211430 170.2764 190.2529 13.70621488004404
1 25412U 98045F   18241.96575904 -.00000008 +00000-0 +31206-4 0  9996
2 25412 071.0807 155.8999 0186221 350.8754 090.7495 13.76125564008458
